{
  "norad_id": 64120,
  "name": "STARLINK-34151",
  "history": [
    {
      "epoch": "2026-03-28T20:44:31.640640Z",
      "apogee_km": 476.11982853917834,
      "perigee_km": 474.3463134322092,
      "latitude_deg": -3.0048406186505604e-05,
      "longitude_deg": 160.60835700132068,
      "height_km": 476.26206366853404,
      "semi_major_axis_km": 6853.370070985694,
      "eccentricity": 0.00012939,
      "inclination_deg": 53.1585,
      "raan_deg": 298.0188,
      "arg_perigee_deg": 98.5014,
      "mean_anomaly_deg": 261.6133,
      "mean_motion_rev_day": 15.30193971
    },
    {
      "epoch": "2026-03-28T23:52:38.063136Z",
      "apogee_km": 476.01036413812835,
      "perigee_km": 474.4491671889109,
      "latitude_deg": -1.7104871710898043e-05,
      "longitude_deg": 112.84505149951227,
      "height_km": 476.1222974981764,
      "semi_major_axis_km": 6853.36676566352,
      "eccentricity": 0.0001139,
      "inclination_deg": 53.1584,
      "raan_deg": 297.411,
      "arg_perigee_deg": 89.5926,
      "mean_anomaly_deg": 270.5205,
      "mean_motion_rev_day": 15.30195078
    },
    {
      "epoch": "2026-03-30T00:57:29.321280Z",
      "apogee_km": 476.03283450499384,
      "perigee_km": 474.33047015175543,
      "latitude_deg": 1.5056011788053372e-05,
      "longitude_deg": 90.74576424522844,
      "height_km": 476.1271389605019,
      "semi_major_axis_km": 6853.318652328375,
      "eccentricity": 0.0001242,
      "inclination_deg": 53.1581,
      "raan_deg": 292.5553,
      "arg_perigee_deg": 93.204,
      "mean_anomaly_deg": 266.9103,
      "mean_motion_rev_day": 15.30211192
    },
    {
      "epoch": "2026-03-30T00:57:29.322144Z",
      "apogee_km": 476.03283450499384,
      "perigee_km": 474.33047015175543,
      "latitude_deg": 1.5056011379645201e-05,
      "longitude_deg": 90.74576063537364,
      "height_km": 476.12713896050286,
      "semi_major_axis_km": 6853.318652328375,
      "eccentricity": 0.0001242,
      "inclination_deg": 53.1581,
      "raan_deg": 292.5553,
      "arg_perigee_deg": 93.204,
      "mean_anomaly_deg": 266.9103,
      "mean_motion_rev_day": 15.30211192
    },
    {
      "epoch": "2026-03-30T13:29:54.919680Z",
      "apogee_km": 475.6582331630307,
      "perigee_km": 474.7004136736696,
      "latitude_deg": -5.985220510698178e-05,
      "longitude_deg": -100.30106869873465,
      "height_km": 476.09347944116024,
      "semi_major_axis_km": 6853.316323418349,
      "eccentricity": 6.988e-05,
      "inclination_deg": 53.1584,
      "raan_deg": 290.1302,
      "arg_perigee_deg": 91.8522,
      "mean_anomaly_deg": 268.2558,
      "mean_motion_rev_day": 15.30211972
    },
    {
      "epoch": "2026-03-30T19:46:07.698144Z",
      "apogee_km": 475.98932446495473,
      "perigee_km": 474.417853467904,
      "latitude_deg": -2.5745514139052585e-06,
      "longitude_deg": 164.1731220491163,
      "height_km": 476.12361826815567,
      "semi_major_axis_km": 6853.340588966429,
      "eccentricity": 0.00011465,
      "inclination_deg": 53.1582,
      "raan_deg": 288.9151,
      "arg_perigee_deg": 91.6028,
      "mean_anomaly_deg": 268.5104,
      "mean_motion_rev_day": 15.30203845
    }
  ]
}